#aV2020  1 28  0  0  0.00000000     288 DD+AD WGS84 FIT  NGA
## 2090 172800.00000000   300.00000000 58876 0.0000000000000
+   32     1  2  3  4  5  6  7  8  9 10 11 12 13 14 15 16 17
+         18 19 20 21 22 23 24 25 26 27 28 29 30 31 32  0  0
+          0  0  0  0  0  0  0  0  0  0  0  0  0  0  0  0  0
+          0  0  0  0  0  0  0  0  0  0  0  0  0  0  0  0  0
+          0  0  0  0  0  0  0  0  0  0  0  0  0  0  0  0  0
++         2  2  2  2  2  2  2  2  2  2  2  2  2  2  2  2  2
++         2  2  2  2  2  2  2  2  2  2  2  2  2  2  2  0  0
++         0  0  0  0  0  0  0  0  0  0  0  0  0  0  0  0  0
++         0  0  0  0  0  0  0  0  0  0  0  0  0  0  0  0  0
++         0  0  0  0  0  0  0  0  0  0  0  0  0  0  0  0  0
%c cc cc ccc ccc cccc cccc cccc cccc ccccc ccccc ccccc ccccc
%c cc cc ccc ccc cccc cccc cccc cccc ccccc ccccc ccccc ccccc
%f  0.0000000  0.000000000  0.00000000000  0.000000000000000
%f  0.0000000  0.000000000  0.00000000000  0.000000000000000
%i    0    0    0    0      0      0      0      0         0
%i    0    0    0    0      0      0      0      0         0
/*      NGA, ST. LOUIS,MO.                                  
/*   EPHEMERIS COMPUTED FROM 2 DAYS OF DATA                 
/*   EPOCHA v5 SMOOTHER                                     
/*   G1762 IERS2010 SATAF SATAPC                            
*  2020  1 28  3 15  0.00000000
P  1  16539.052198   4292.264363  20218.395266   -276.417657                    
V  1   9322.209742  24274.196241 -12335.105431     -0.121339                    
P  2 -13908.538099 -22348.151496  -3248.109785   -394.085289                    
V  2    353.078831  -5672.727557  31269.185376     -0.070650                    
P  3  19726.689870  -8125.377933  15703.257396    -81.579123                    
V  3 -10525.047958  17201.414095  22130.262002     -0.081961                    
P  4  25995.279005     94.567846  -5503.192749    -40.608052                    
V  4   6494.919552   3774.175879  30685.982877     -0.054200                    
P  5 -10005.070943 -12282.481547 -21430.558443     -6.724094                    
V  5  16022.957460 -21683.207432   5169.158585     -0.005310                    
P  6  -5470.158584 -24991.942175   7125.411094   -193.733450                    
V  6   5517.759907   7392.582255  30428.735900     -0.098752                    
P  7   9623.939804 -13974.656200 -20025.829493   -201.695154                    
V  7  11252.167705  23726.303899 -11464.353453     -0.083642                    
P  8  25427.985284   6241.011576  -5143.022772    -21.747314                    
V  8  -6722.976345   1562.528064 -30914.046208     -0.013539                    
P  9  21019.500048  -7951.824989 -14228.571155   -142.479781                    
V  9  17640.698483   4178.412137  23803.033497     -0.086188                    
P 10  -9761.598945  23035.555052   8636.233979   -224.955868                    
V 10  -8652.005412   7171.247793 -29388.140856     -0.133719                    
P 11  22389.674453   7763.608908  11175.916964   -377.673306                    
V 11   8888.381588  12932.441460 -25980.946604      0.108430                    
P 12 -19056.940039   3758.530205  17811.509329    157.603376                    
V 12  14024.156548 -18395.415232  18818.605616     -0.041250                    
P 13 -20210.787366 -13148.891141 -11352.204319    -16.951795                    
V 13  14279.857167   1389.529531 -27253.674802      0.026491                    
P 14   7779.545265  15959.074079  20138.854164    -36.093182                    
V 14 -24496.667282  -3982.893720  12648.691586      0.023634                    
P 15 -26072.154581  -4075.837289  -4777.272330   -255.579849                    
V 15   5720.666052  -3279.095769 -29992.147588      0.026431                    
P 16   8177.300787  12857.913106 -21907.008685   -118.227939                    
V 16 -18674.939591  19966.597954   5232.308045     -0.040582                    
P 17   3872.758474 -14426.040329  22387.663220    206.201030                    
V 17  26883.071794   4911.948090  -1569.236744      0.065020                    
P 18  17796.219817  12182.252992  15055.570823    116.162886                    
V 18   6841.560798  18918.869588 -22554.432985      0.022917                    
P 19  -4807.941790 -15351.742922  20840.523828   -206.548753                    
V 19  26571.362804   5281.386910   9889.255615      0.051724                    
P 20 -14829.748481  21707.517880  -2974.317973    527.837396                    
V 20  -1501.504017  -5112.823159 -30959.331263      0.000310                    
P 21  -6380.563255  16965.463787 -18700.752637    -49.389751                    
V 21 -12805.746910 -21985.279373 -14721.769241      0.054965                    
P 22  17676.363667    -36.322773  20013.269455   -783.254984                    
V 22 -12241.415883  21933.370847  11084.664292     -0.010178                    
P 23  25981.094945  -1694.829668  -5832.201572   -140.231427                    
V 23   7465.649790   3734.199130  29951.593697      0.025244                    
P 24 -18056.080400  -5633.749962  18592.986792     -8.184214                    
V 24  -9206.917043 -22183.493157 -15142.671170     -0.005104                    
P 25 -19304.679357  15728.461432   8610.929599    -14.970842                    
V 25   4693.987849 -10640.869292  29463.460534      0.010351                    
P 26   1224.904082  19949.939920 -17410.897354    136.425015                    
V 26 -14413.396004  16972.309450  18676.665006      0.078811                    
P 27  18567.728195  12283.860127 -14847.839742   -194.110345                    
V 27 -18518.192449   -778.473673 -23675.609638     -0.111970                    
P 28  10409.952901 -22279.034344  10803.371961    742.756596                    
V 28   9833.166296  -8313.337935 -28048.100593     -0.021851                    
P 29 -21837.385256   5395.787110 -14168.333965    -18.507979                    
V 29 -17281.279920  -4854.416135  24822.640457     -0.095297                    
P 30   1810.965458 -22736.312184 -13414.942499   -139.474452                    
V 30   8849.044974  15043.513147 -24446.894545     -0.089149                    
P 31   6576.746840  25092.840183   4371.394309    -19.409819                    
V 31  -5100.415358  -4086.018739  31335.173807     -0.025083                    
P 32  -2499.128014  15141.721794  21739.051321    196.936005                    
V 32 -27275.804165  -3254.412506  -1007.903584      0.102960                    
EOF
